EUTELSAT KONNECT        
1 45027U 20005B   25197.34528948  .00000057  00000+0  00000+0 0  9992
2 45027   0.0569  90.9127 0000683 133.4531 201.5877  1.00268188 20955
EUTELSAT QUANTUM        
1 49056U 21069B   25197.13914057  .00000134  00000+0  00000+0 0  9992
2 49056   0.0108   2.6862 0001842 125.4019 263.9044  1.00271321 14556
EUTELSAT KONNECT VHTS   
1 53765U 22110A   25197.34416281  .00000024  00000+0  00000+0 0  9999
2 53765   0.0514  95.0684 0002486  27.6053 298.3380  1.00269045 10420
EUTELSAT HOTBIRD 13F    
1 54048U 22134A   25197.34641616  .00000094  00000+0  00000+0 0  9999
2 54048   0.0702 285.0092 0001999  75.8071  71.3252  1.00270047 10062
EUTELSAT HOTBIRD 13G    
1 54225U 22146A   25195.93864287  .00000094  00000+0  00000+0 0  9993
2 54225   0.0553 237.6072 0002224 301.2726 105.0514  1.00270037  4089
EUTELSAT 10B            
1 54259U 22157A   25197.34580948  .00000075  00000+0  00000+0 0  9997
2 54259   0.0515  92.9234 0001614  30.0706 305.8947  1.00268380  9682
EUTELSAT 36D            
1 59346U 24059A   25197.49371626  .00000163  00000+0  00000+0 0  9997
2 59346   0.0081  20.7463 0000440 163.5371 323.8810  1.00271939  4779
